[{"OBJECT_NAME":"ISS (ZARYA)","OBJECT_ID":"1998-067A","EPOCH":"2026-04-27T04:01:32.075040","MEAN_MOTION":15.48984622,"ECCENTRICITY":0.00070425,"INCLINATION":51.6319,"RA_OF_ASC_NODE":192.6271,"ARG_OF_PERICENTER":355.6641,"MEAN_ANOMALY":4.4286,"EPHEMERIS_TYPE":0,"CLASSIFICATION_TYPE":"U","NORAD_CAT_ID":25544,"ELEMENT_SET_NO":999,"REV_AT_EPOCH":56384,"BSTAR":0.00020199612,"MEAN_MOTION_DOT":0.00010693,"MEAN_MOTION_DDOT":0},{"OBJECT_NAME":"POISK","OBJECT_ID":"2009-060A","EPOCH":"2026-04-27T04:01:32.075040","MEAN_MOTION":15.48984622,"ECCENTRICITY":0.00070425,"INCLINATION":51.6319,"RA_OF_ASC_NODE":192.6271,"ARG_OF_PERICENTER":355.6641,"MEAN_ANOMALY":4.4286,"EPHEMERIS_TYPE":0,"CLASSIFICATION_TYPE":"U","NORAD_CAT_ID":36086,"ELEMENT_SET_NO":999,"REV_AT_EPOCH":56352,"BSTAR":0.00020199612,"MEAN_MOTION_DOT":0.00010693,"MEAN_MOTION_DDOT":0},{"OBJECT_NAME":"CSS (TIANHE)","OBJECT_ID":"2021-035A","EPOCH":"2026-04-27T07:29:26.488896","MEAN_MOTION":15.6304345,"ECCENTRICITY":0.00068174,"INCLINATION":41.4669,"RA_OF_ASC_NODE":271.7854,"ARG_OF_PERICENTER":282.338,"MEAN_ANOMALY":77.6697,"EPHEMERIS_TYPE":0,"CLASSIFICATION_TYPE":"U","NORAD_CAT_ID":48274,"ELEMENT_SET_NO":999,"REV_AT_EPOCH":28521,"BSTAR":0.00031168042,"MEAN_MOTION_DOT":0.00028957,"MEAN_MOTION_DDOT":0},{"OBJECT_NAME":"ISS (NAUKA)","OBJECT_ID":"2021-066A","EPOCH":"2026-04-27T04:01:32.075040","MEAN_MOTION":15.48984622,"ECCENTRICITY":0.00070425,"INCLINATION":51.6319,"RA_OF_ASC_NODE":192.6271,"ARG_OF_PERICENTER":355.6641,"MEAN_ANOMALY":4.4286,"EPHEMERIS_TYPE":0,"CLASSIFICATION_TYPE":"U","NORAD_CAT_ID":49044,"ELEMENT_SET_NO":999,"REV_AT_EPOCH":56356,"BSTAR":0.00020199612,"MEAN_MOTION_DOT":0.00010693,"MEAN_MOTION_DDOT":0},{"OBJECT_NAME":"FREGAT DEB","OBJECT_ID":"2011-037PF","EPOCH":"2026-04-25T11:37:52.584960","MEAN_MOTION":12.41059581,"ECCENTRICITY":0.09405705,"INCLINATION":51.6455,"RA_OF_ASC_NODE":160.2244,"ARG_OF_PERICENTER":166.6488,"MEAN_ANOMALY":196.1217,"EPHEMERIS_TYPE":0,"CLASSIFICATION_TYPE":"U","NORAD_CAT_ID":49271,"ELEMENT_SET_NO":999,"REV_AT_EPOCH":21850,"BSTAR":0.01130357,"MEAN_MOTION_DOT":7.383e-5,"MEAN_MOTION_DDOT":0},{"OBJECT_NAME":"CSS (WENTIAN)","OBJECT_ID":"2022-085A","EPOCH":"2026-04-27T07:29:26.488896","MEAN_MOTION":15.6304345,"ECCENTRICITY":0.00068174,"INCLINATION":41.4669,"RA_OF_ASC_NODE":271.7854,"ARG_OF_PERICENTER":282.338,"MEAN_ANOMALY":77.6697,"EPHEMERIS_TYPE":0,"CLASSIFICATION_TYPE":"U","NORAD_CAT_ID":53239,"ELEMENT_SET_NO":999,"REV_AT_EPOCH":28313,"BSTAR":0.00031168042,"MEAN_MOTION_DOT":0.00028957,"MEAN_MOTION_DDOT":0},{"OBJECT_NAME":"CSS (MENGTIAN)","OBJECT_ID":"2022-143A","EPOCH":"2026-04-27T07:29:26.488896","MEAN_MOTION":15.6304345,"ECCENTRICITY":0.00068174,"INCLINATION":41.4669,"RA_OF_ASC_NODE":271.7854,"ARG_OF_PERICENTER":282.338,"MEAN_ANOMALY":77.6697,"EPHEMERIS_TYPE":0,"CLASSIFICATION_TYPE":"U","NORAD_CAT_ID":54216,"ELEMENT_SET_NO":999,"REV_AT_EPOCH":28523,"BSTAR":0.00031168042,"MEAN_MOTION_DOT":0.00028957,"MEAN_MOTION_DDOT":0},{"OBJECT_NAME":"TIANZHOU-9","OBJECT_ID":"2025-149A","EPOCH":"2026-04-27T07:29:26.488896","MEAN_MOTION":15.6304345,"ECCENTRICITY":0.00068174,"INCLINATION":41.4669,"RA_OF_ASC_NODE":271.7854,"ARG_OF_PERICENTER":282.338,"MEAN_ANOMALY":77.6697,"EPHEMERIS_TYPE":0,"CLASSIFICATION_TYPE":"U","NORAD_CAT_ID":64786,"ELEMENT_SET_NO":999,"REV_AT_EPOCH":28524,"BSTAR":0.00031168042,"MEAN_MOTION_DOT":0.00028957,"MEAN_MOTION_DDOT":0},{"OBJECT_NAME":"HRC MONOBLOCK CAMERA","OBJECT_ID":"1998-067XR","EPOCH":"2026-04-26T11:14:19.277088","MEAN_MOTION":15.67436349,"ECCENTRICITY":0.00048947,"INCLINATION":51.6263,"RA_OF_ASC_NODE":183.4395,"ARG_OF_PERICENTER":337.5121,"MEAN_ANOMALY":22.566,"EPHEMERIS_TYPE":0,"CLASSIFICATION_TYPE":"U","NORAD_CAT_ID":66052,"ELEMENT_SET_NO":999,"REV_AT_EPOCH":2987,"BSTAR":0.00061472884,"MEAN_MOTION_DOT":0.00067961,"MEAN_MOTION_DDOT":0},{"OBJECT_NAME":"HTV-X1","OBJECT_ID":"2025-241A","EPOCH":"2026-04-22T23:48:46.558656","MEAN_MOTION":15.32728944,"ECCENTRICITY":0.00078219,"INCLINATION":51.6353,"RA_OF_ASC_NODE":219.4042,"ARG_OF_PERICENTER":344.1053,"MEAN_ANOMALY":15.9682,"EPHEMERIS_TYPE":0,"CLASSIFICATION_TYPE":"U","NORAD_CAT_ID":66174,"ELEMENT_SET_NO":999,"REV_AT_EPOCH":2773,"BSTAR":0.00014900059,"MEAN_MOTION_DOT":4.413e-5,"MEAN_MOTION_DDOT":0},{"OBJECT_NAME":"SZ-21 MODULE","OBJECT_ID":"2025-246C","EPOCH":"2026-04-26T16:53:00.098304","MEAN_MOTION":15.72262877,"ECCENTRICITY":0.00039399,"INCLINATION":41.4732,"RA_OF_ASC_NODE":266.952,"ARG_OF_PERICENTER":331.6776,"MEAN_ANOMALY":28.3852,"EPHEMERIS_TYPE":0,"CLASSIFICATION_TYPE":"U","NORAD_CAT_ID":66515,"ELEMENT_SET_NO":999,"REV_AT_EPOCH":2562,"BSTAR":0.0003378853,"MEAN_MOTION_DOT":0.0004598,"MEAN_MOTION_DDOT":0},{"OBJECT_NAME":"SHENZHOU-22","OBJECT_ID":"2025-272A","EPOCH":"2026-04-27T07:29:26.488896","MEAN_MOTION":15.6304345,"ECCENTRICITY":0.00068174,"INCLINATION":41.4669,"RA_OF_ASC_NODE":271.7854,"ARG_OF_PERICENTER":282.338,"MEAN_ANOMALY":77.6697,"EPHEMERIS_TYPE":0,"CLASSIFICATION_TYPE":"U","NORAD_CAT_ID":66645,"ELEMENT_SET_NO":999,"REV_AT_EPOCH":28525,"BSTAR":0.00031168042,"MEAN_MOTION_DOT":0.00028957,"MEAN_MOTION_DDOT":0},{"OBJECT_NAME":"SOYUZ-MS 28","OBJECT_ID":"2025-275A","EPOCH":"2026-04-27T04:01:32.075040","MEAN_MOTION":15.48984622,"ECCENTRICITY":0.00070425,"INCLINATION":51.6319,"RA_OF_ASC_NODE":192.6271,"ARG_OF_PERICENTER":355.6641,"MEAN_ANOMALY":4.4286,"EPHEMERIS_TYPE":0,"CLASSIFICATION_TYPE":"U","NORAD_CAT_ID":66664,"ELEMENT_SET_NO":999,"REV_AT_EPOCH":56380,"BSTAR":0.00020199612,"MEAN_MOTION_DOT":0.00010693,"MEAN_MOTION_DDOT":0},{"OBJECT_NAME":"DUPLEX","OBJECT_ID":"1998-067XS","EPOCH":"2026-04-27T05:05:43.069920","MEAN_MOTION":15.59235257,"ECCENTRICITY":0.00048375,"INCLINATION":51.6278,"RA_OF_ASC_NODE":186.1727,"ARG_OF_PERICENTER":348.5782,"MEAN_ANOMALY":11.51,"EPHEMERIS_TYPE":0,"CLASSIFICATION_TYPE":"U","NORAD_CAT_ID":66906,"ELEMENT_SET_NO":999,"REV_AT_EPOCH":2269,"BSTAR":0.00043591689,"MEAN_MOTION_DOT":0.00034552,"MEAN_MOTION_DDOT":0},{"OBJECT_NAME":"ISS OBJECT XT","OBJECT_ID":"1998-067XT","EPOCH":"2026-04-26T11:08:52.654848","MEAN_MOTION":15.95202701,"ECCENTRICITY":0.00122373,"INCLINATION":51.6166,"RA_OF_ASC_NODE":178.0521,"ARG_OF_PERICENTER":2.0262,"MEAN_ANOMALY":358.0793,"EPHEMERIS_TYPE":0,"CLASSIFICATION_TYPE":"U","NORAD_CAT_ID":66907,"ELEMENT_SET_NO":999,"REV_AT_EPOCH":2273,"BSTAR":0.0015780299,"MEAN_MOTION_DOT":0.00637256,"MEAN_MOTION_DDOT":0.00018039539},{"OBJECT_NAME":"ISS OBJECT XU","OBJECT_ID":"1998-067XU","EPOCH":"2026-04-27T04:53:12.382656","MEAN_MOTION":15.9703603,"ECCENTRICITY":0.00119163,"INCLINATION":51.616,"RA_OF_ASC_NODE":173.9767,"ARG_OF_PERICENTER":4.7356,"MEAN_ANOMALY":355.3763,"EPHEMERIS_TYPE":0,"CLASSIFICATION_TYPE":"U","NORAD_CAT_ID":66908,"ELEMENT_SET_NO":999,"REV_AT_EPOCH":2285,"BSTAR":0.0015907242,"MEAN_MOTION_DOT":0.00709838,"MEAN_MOTION_DDOT":0.00023007754}]
